1998-067XU              
1 66908U 98067XU  26030.05207483  .00117469  00000+0  14337-2 0  9996
2 66908  51.6273 261.1529 0002809 150.0773 210.0381 15.59570858  9134
SILVERSAT               
1 66909U 98067XV  26030.03446528  .00125926  00000+0  14708-2 0  9999
2 66909  51.6282 261.0363 0003357 162.5330 197.5779 15.60686081  9134
1998-067XW              
1 66910U 98067XW  26030.04240681  .00104201  00000+0  12689-2 0  9993
2 66910  51.6271 261.0852 0001618 149.8489 210.2597 15.59690918  9131
1998-067XX              
1 66911U 98067XX  26030.01152424  .00124951  00000+0  14017-2 0  9999
2 66911  51.6259 260.8786 0002421 180.1985 179.9008 15.61740265  9124
1998-067XY              
1 66912U 98067XY  26030.02472250  .00077959  00000+0  10441-2 0  9995
2 66912  51.6286 261.7221 0002426 121.2070 238.9160 15.57293463  9117
